CCSDS_OMM_VERS = 2.0
CREATION_DATE  = 
ORIGINATOR     = 

OBJECT_NAME    = RSP-03
OBJECT_ID      = 1998-067XL
CENTER_NAME    = EARTH
REF_FRAME      = TEME
TIME_SYSTEM    = UTC
MEAN_ELEMENT_THEORY = SGP/SGP4

EPOCH          = 2026-02-12T13:56:03.956640
MEAN_MOTION    = 16.11876146
ECCENTRICITY   = .00094057
INCLINATION    = 51.6116
RA_OF_ASC_NODE = 175.0644
ARG_OF_PERICENTER = 324.0808
MEAN_ANOMALY   = 35.9573

EPHEMERIS_TYPE = 0
CLASSIFICATION_TYPE = U
NORAD_CAT_ID   = 65732
ELEMENT_SET_NO = 999
REV_AT_EPOCH   = 2295
BSTAR          = .14216E-2
MEAN_MOTION_DOT = .1531193E-1
MEAN_MOTION_DDOT = .17339954E-2

CCSDS_OMM_VERS = 2.0
CREATION_DATE  = 
ORIGINATOR     = 

OBJECT_NAME    = YOTSUBA-KULOVER
OBJECT_ID      = 1998-067XN
CENTER_NAME    = EARTH
REF_FRAME      = TEME
TIME_SYSTEM    = UTC
MEAN_ELEMENT_THEORY = SGP/SGP4

EPOCH          = 2026-02-12T14:12:43.259904
MEAN_MOTION    = 15.71964307
ECCENTRICITY   = .00043834
INCLINATION    = 51.6248
RA_OF_ASC_NODE = 186.5540
ARG_OF_PERICENTER = 287.5761
MEAN_ANOMALY   = 72.4758

EPHEMERIS_TYPE = 0
CLASSIFICATION_TYPE = U
NORAD_CAT_ID   = 65941
ELEMENT_SET_NO = 999
REV_AT_EPOCH   = 1954
BSTAR          = .99190093E-3
MEAN_MOTION_DOT = .133871E-2
MEAN_MOTION_DDOT = 0

CCSDS_OMM_VERS = 2.0
CREATION_DATE  = 
ORIGINATOR     = 

OBJECT_NAME    = BOTAN
OBJECT_ID      = 1998-067XP
CENTER_NAME    = EARTH
REF_FRAME      = TEME
TIME_SYSTEM    = UTC
MEAN_ELEMENT_THEORY = SGP/SGP4

EPOCH          = 2026-02-12T13:23:16.115424
MEAN_MOTION    = 15.87394938
ECCENTRICITY   = .00076286
INCLINATION    = 51.6168
RA_OF_ASC_NODE = 182.5170
ARG_OF_PERICENTER = 311.7448
MEAN_ANOMALY   = 48.2904

EPHEMERIS_TYPE = 0
CLASSIFICATION_TYPE = U
NORAD_CAT_ID   = 65942
ELEMENT_SET_NO = 999
REV_AT_EPOCH   = 1959
BSTAR          = .14703201E-2
MEAN_MOTION_DOT = .415866E-2
MEAN_MOTION_DDOT = 0

CCSDS_OMM_VERS = 2.0
CREATION_DATE  = 
ORIGINATOR     = 

OBJECT_NAME    = E-KAGAKU-1
OBJECT_ID      = 1998-067XQ
CENTER_NAME    = EARTH
REF_FRAME      = TEME
TIME_SYSTEM    = UTC
MEAN_ELEMENT_THEORY = SGP/SGP4

EPOCH          = 2026-02-12T14:14:16.310976
MEAN_MOTION    = 15.71842830
ECCENTRICITY   = .00039925
INCLINATION    = 51.6265
RA_OF_ASC_NODE = 186.5728
ARG_OF_PERICENTER = 302.8017
MEAN_ANOMALY   = 57.2596

EPHEMERIS_TYPE = 0
CLASSIFICATION_TYPE = U
NORAD_CAT_ID   = 65943
ELEMENT_SET_NO = 999
REV_AT_EPOCH   = 1954
BSTAR          = .98465354E-3
MEAN_MOTION_DOT = .132168E-2
MEAN_MOTION_DDOT = 0

CCSDS_OMM_VERS = 2.0
CREATION_DATE  = 
ORIGINATOR     = 

OBJECT_NAME    = HRC MONOBLOCK CAMERA
OBJECT_ID      = 1998-067XR
CENTER_NAME    = EARTH
REF_FRAME      = TEME
TIME_SYSTEM    = UTC
MEAN_ELEMENT_THEORY = SGP/SGP4

EPOCH          = 2026-02-12T14:26:53.290752
MEAN_MOTION    = 15.59597058
ECCENTRICITY   = .00016054
INCLINATION    = 51.6268
RA_OF_ASC_NODE = 191.8847
ARG_OF_PERICENTER = 359.5026
MEAN_ANOMALY   = 0.5965

EPHEMERIS_TYPE = 0
CLASSIFICATION_TYPE = U
NORAD_CAT_ID   = 66052
ELEMENT_SET_NO = 999
REV_AT_EPOCH   = 1847
BSTAR          = .6086958E-3
MEAN_MOTION_DOT = .49198E-3
MEAN_MOTION_DDOT = 0

CCSDS_OMM_VERS = 2.0
CREATION_DATE  = 
ORIGINATOR     = 

OBJECT_NAME    = HTV-X1
OBJECT_ID      = 2025-241A
CENTER_NAME    = EARTH
REF_FRAME      = TEME
TIME_SYSTEM    = UTC
MEAN_ELEMENT_THEORY = SGP/SGP4

EPOCH          = 2026-02-12T14:25:37.931808
MEAN_MOTION    = 15.48566265
ECCENTRICITY   = .00111057
INCLINATION    = 51.6314
RA_OF_ASC_NODE = 196.3763
ARG_OF_PERICENTER = 91.6743
MEAN_ANOMALY   = 268.5518

EPHEMERIS_TYPE = 0
CLASSIFICATION_TYPE = U
NORAD_CAT_ID   = 66174
ELEMENT_SET_NO = 999
REV_AT_EPOCH   = 51
BSTAR          = .16436923E-3
MEAN_MOTION_DOT = .8494E-4
MEAN_MOTION_DDOT = 0

CCSDS_OMM_VERS = 2.0
CREATION_DATE  = 
ORIGINATOR     = 

OBJECT_NAME    = SZ-21 MODULE
OBJECT_ID      = 2025-246C
CENTER_NAME    = EARTH
REF_FRAME      = TEME
TIME_SYSTEM    = UTC
MEAN_ELEMENT_THEORY = SGP/SGP4

EPOCH          = 2026-02-12T06:29:36.873024
MEAN_MOTION    = 15.66611010
ECCENTRICITY   = .00025
INCLINATION    = 41.4762
RA_OF_ASC_NODE = 359.5986
ARG_OF_PERICENTER = 292.2665
MEAN_ANOMALY   = 67.7911

EPHEMERIS_TYPE = 0
CLASSIFICATION_TYPE = U
NORAD_CAT_ID   = 66515
ELEMENT_SET_NO = 999
REV_AT_EPOCH   = 1408
BSTAR          = .36437E-3
MEAN_MOTION_DOT = .39145E-3
MEAN_MOTION_DDOT = 0

CCSDS_OMM_VERS = 2.0
CREATION_DATE  = 
ORIGINATOR     = 

OBJECT_NAME    = SHENZHOU-22
OBJECT_ID      = 2025-272A
CENTER_NAME    = EARTH
REF_FRAME      = TEME
TIME_SYSTEM    = UTC
MEAN_ELEMENT_THEORY = SGP/SGP4

EPOCH          = 2026-02-12T08:46:17.567904
MEAN_MOTION    = 15.59540368
ECCENTRICITY   = .00041773
INCLINATION    = 41.4683
RA_OF_ASC_NODE = 2.1188
ARG_OF_PERICENTER = 70.2177
MEAN_ANOMALY   = 289.9112

EPHEMERIS_TYPE = 0
CLASSIFICATION_TYPE = U
NORAD_CAT_ID   = 66645
ELEMENT_SET_NO = 999
REV_AT_EPOCH   = 26764
BSTAR          = .30901091E-3
MEAN_MOTION_DOT = .25006E-3
MEAN_MOTION_DDOT = 0

CCSDS_OMM_VERS = 2.0
CREATION_DATE  = 
ORIGINATOR     = 

OBJECT_NAME    = SOYUZ-MS 28
OBJECT_ID      = 2025-275A
CENTER_NAME    = EARTH
REF_FRAME      = TEME
TIME_SYSTEM    = UTC
MEAN_ELEMENT_THEORY = SGP/SGP4

EPOCH          = 2026-02-12T14:25:37.931808
MEAN_MOTION    = 15.48566265
ECCENTRICITY   = .00111057
INCLINATION    = 51.6314
RA_OF_ASC_NODE = 196.3763
ARG_OF_PERICENTER = 91.6743
MEAN_ANOMALY   = 268.5518

EPHEMERIS_TYPE = 0
CLASSIFICATION_TYPE = U
NORAD_CAT_ID   = 66664
ELEMENT_SET_NO = 999
REV_AT_EPOCH   = 128
BSTAR          = .16436923E-3
MEAN_MOTION_DOT = .8494E-4
MEAN_MOTION_DDOT = 0

CCSDS_OMM_VERS = 2.0
CREATION_DATE  = 
ORIGINATOR     = 

OBJECT_NAME    = DUPLEX
OBJECT_ID      = 1998-067XS
CENTER_NAME    = EARTH
REF_FRAME      = TEME
TIME_SYSTEM    = UTC
MEAN_ELEMENT_THEORY = SGP/SGP4

EPOCH          = 2026-02-12T14:12:14.956992
MEAN_MOTION    = 15.54459203
ECCENTRICITY   = .00013774
INCLINATION    = 51.6280
RA_OF_ASC_NODE = 194.8166
ARG_OF_PERICENTER = 78.1518
MEAN_ANOMALY   = 281.9627

EPHEMERIS_TYPE = 0
CLASSIFICATION_TYPE = U
NORAD_CAT_ID   = 66906
ELEMENT_SET_NO = 999
REV_AT_EPOCH   = 1122
BSTAR          = .48173466E-3
MEAN_MOTION_DOT = .31925E-3
MEAN_MOTION_DDOT = 0

CCSDS_OMM_VERS = 2.0
CREATION_DATE  = 
ORIGINATOR     = 

OBJECT_NAME    = ISS OBJECT XT
OBJECT_ID      = 1998-067XT
CENTER_NAME    = EARTH
REF_FRAME      = TEME
TIME_SYSTEM    = UTC
MEAN_ELEMENT_THEORY = SGP/SGP4

EPOCH          = 2026-02-12T10:23:01.527648
MEAN_MOTION    = 15.62487257
ECCENTRICITY   = .00019282
INCLINATION    = 51.6269
RA_OF_ASC_NODE = 193.7533
ARG_OF_PERICENTER = 281.3599
MEAN_ANOMALY   = 78.7178

EPHEMERIS_TYPE = 0
CLASSIFICATION_TYPE = U
NORAD_CAT_ID   = 66907
ELEMENT_SET_NO = 999
REV_AT_EPOCH   = 1122
BSTAR          = .14254793E-2
MEAN_MOTION_DOT = .130924E-2
MEAN_MOTION_DDOT = 0

CCSDS_OMM_VERS = 2.0
CREATION_DATE  = 
ORIGINATOR     = 

OBJECT_NAME    = ISS OBJECT XU
OBJECT_ID      = 1998-067XU
CENTER_NAME    = EARTH
REF_FRAME      = TEME
TIME_SYSTEM    = UTC
MEAN_ELEMENT_THEORY = SGP/SGP4

EPOCH          = 2026-02-12T10:22:05.114496
MEAN_MOTION    = 15.62515824
ECCENTRICITY   = .00017625
INCLINATION    = 51.6262
RA_OF_ASC_NODE = 193.7463
ARG_OF_PERICENTER = 285.9993
MEAN_ANOMALY   = 74.0807

EPHEMERIS_TYPE = 0
CLASSIFICATION_TYPE = U
NORAD_CAT_ID   = 66908
ELEMENT_SET_NO = 999
REV_AT_EPOCH   = 1122
BSTAR          = .14202587E-2
MEAN_MOTION_DOT = .130581E-2
MEAN_MOTION_DDOT = 0

